[
  {
    "region_id": "01.",
    "province_id": "01.051.",
    "code": "03",
    "id": "01.051.03.",
    "name": "Cercle : Bni Boufrah",
    "name_ar": "بني بوفراح"
  },
  {
    "region_id": "01.",
    "province_id": "01.051.",
    "code": "05",
    "id": "01.051.05.",
    "name": "Cercle : Bni Ouriaghel",
    "name_ar": "بني ورياغل"
  },
  {
    "region_id": "01.",
    "province_id": "01.051.",
    "code": "07",
    "id": "01.051.07.",
    "name": "Cercle : Targuist",
    "name_ar": "تارجيست"
  },
  {
    "region_id": "01.",
    "province_id": "01.051.",
    "code": "09",
    "id": "01.051.09.",
    "name": "Cercle : Ketama",
    "name_ar": "كتامة"
  },
  {
    "region_id": "01.",
    "province_id": "01.151.",
    "code": "03",
    "id": "01.151.03.",
    "name": "Cercle : Bab Berred",
    "name_ar": "باب برد"
  },
  {
    "region_id": "01.",
    "province_id": "01.151.",
    "code": "05",
    "id": "01.151.05.",
    "name": "Cercle : Bab Taza",
    "name_ar": "باب تازة"
  },
  {
    "region_id": "01.",
    "province_id": "01.151.",
    "code": "06",
    "id": "01.151.06.",
    "name": "Cercle : Bni Ahmed",
    "name_ar": "بني أحمد"
  },
  {
    "region_id": "01.",
    "province_id": "01.151.",
    "code": "07",
    "id": "01.151.07.",
    "name": "Cercle : Bou Ahmed",
    "name_ar": "بو أحمد"
  },
  {
    "region_id": "01.",
    "province_id": "01.151.",
    "code": "09",
    "id": "01.151.09.",
    "name": "Cercle : Jebha",
    "name_ar": "ألجبهة"
  },
  {
    "region_id": "01.",
    "province_id": "01.227.",
    "code": "03",
    "id": "01.227.03.",
    "name": "Cercle : Anjra",
    "name_ar": "انجرة"
  },
  {
    "region_id": "01.",
    "province_id": "01.227.",
    "code": "05",
    "id": "01.227.05.",
    "name": "Cercle : Fahs",
    "name_ar": "فحص"
  },
  {
    "region_id": "01.",
    "province_id": "01.331.",
    "code": "07",
    "id": "01.331.07.",
    "name": "Cercle : Loukouss",
    "name_ar": "لوكوس"
  },
  {
    "region_id": "01.",
    "province_id": "01.331.",
    "code": "09",
    "id": "01.331.09.",
    "name": "Cercle : Moulay Abdeslem-Ben M'chich",
    "name_ar": "مولاي عبد السلام بن مشيش"
  },
  {
    "region_id": "01.",
    "province_id": "01.331.",
    "code": 11,
    "id": "01.331.11.",
    "name": "Cercle : Oued El Makhazine",
    "name_ar": "واد المخازن"
  },
  {
    "region_id": "01.",
    "province_id": "01.405.",
    "code": "07",
    "id": "01.405.07.",
    "name": "Cercle : Ouezzane",
    "name_ar": "وزان"
  },
  {
    "region_id": "01.",
    "province_id": "01.405.",
    "code": "09",
    "id": "01.405.09.",
    "name": "Cercle : Moqrisset",
    "name_ar": "مقريصات"
  },
  {
    "region_id": "01.",
    "province_id": "01.405.",
    "code": 11,
    "id": "01.405.11.",
    "name": "Cercle : Zoumi",
    "name_ar": "زومي"
  },
  {
    "region_id": "01.",
    "province_id": "01.511.",
    "code": "03",
    "id": "01.511.03.",
    "name": "Cercle : Assilah",
    "name_ar": "أصيلة"
  },
  {
    "region_id": "01.",
    "province_id": "01.511.",
    "code": 81,
    "id": "01.511.81.",
    "name": "Cercle : -",
    "name_ar": "دائرة -"
  },
  {
    "region_id": "01.",
    "province_id": "01.571.",
    "code": "03",
    "id": "01.571.03.",
    "name": "Cercle : Jebala",
    "name_ar": "جبالة"
  },
  {
    "region_id": "01.",
    "province_id": "01.571.",
    "code": "05",
    "id": "01.571.05.",
    "name": "Cercle : Tétouan",
    "name_ar": "تطوان"
  },
  {
    "region_id": "01.",
    "province_id": "01.573.",
    "code": "03",
    "id": "01.573.03.",
    "name": "Cercle : -",
    "name_ar": "دائرة -"
  },
  {
    "region_id": "02.",
    "province_id": "02.113.",
    "code": "03",
    "id": "02.113.03.",
    "name": "Cercle : Ahfir",
    "name_ar": "أحفير"
  },
  {
    "region_id": "02.",
    "province_id": "02.113.",
    "code": "05",
    "id": "02.113.05.",
    "name": "Cercle : Aklim",
    "name_ar": "أكليم"
  },
  {
    "region_id": "02.",
    "province_id": "02.167.",
    "code": "03",
    "id": "02.167.03.",
    "name": "Cercle : Driouch",
    "name_ar": "الدريوش"
  },
  {
    "region_id": "02.",
    "province_id": "02.167.",
    "code": "09",
    "id": "02.167.09.",
    "name": "Cercle : Rif",
    "name_ar": "ريف"
  },
  {
    "region_id": "02.",
    "province_id": "02.251.",
    "code": "03",
    "id": "02.251.03.",
    "name": "Cercle : Bni Tadjite",
    "name_ar": "بني تجيت"
  },
  {
    "region_id": "02.",
    "province_id": "02.251.",
    "code": "05",
    "id": "02.251.05.",
    "name": "Cercle : Figuig",
    "name_ar": "فكيك"
  },
  {
    "region_id": "02.",
    "province_id": "02.265.",
    "code": "05",
    "id": "02.265.05.",
    "name": "Cercle : Guercif",
    "name_ar": "غرسيف"
  },
  {
    "region_id": "02.",
    "province_id": "02.265.",
    "code": "07",
    "id": "02.265.07.",
    "name": "Cercle : Taddart",
    "name_ar": "تادرت"
  },
  {
    "region_id": "02.",
    "province_id": "02.275.",
    "code": "03",
    "id": "02.275.03.",
    "name": "Cercle : Jerada Banlieue",
    "name_ar": "الضواحي جرادة"
  },
  {
    "region_id": "02.",
    "province_id": "02.275.",
    "code": "05",
    "id": "02.275.05.",
    "name": "Cercle : Ain Bni  Mathar",
    "name_ar": "عين بني مطهر"
  },
  {
    "region_id": "02.",
    "province_id": "02.381.",
    "code": "05",
    "id": "02.381.05.",
    "name": "Cercle : Guelaia",
    "name_ar": "كلاية"
  },
  {
    "region_id": "02.",
    "province_id": "02.381.",
    "code": "07",
    "id": "02.381.07.",
    "name": "Cercle : Louta",
    "name_ar": "لوطا"
  },
  {
    "region_id": "02.",
    "province_id": "02.411.",
    "code": "03",
    "id": "02.411.03.",
    "name": "Cercle : Oujda  Banlieue Nord",
    "name_ar": "الضواحي وجدة الشمالية"
  },
  {
    "region_id": "02.",
    "province_id": "02.411.",
    "code": "05",
    "id": "02.411.05.",
    "name": "Cercle : Oujda  Banlieue Sud",
    "name_ar": "الضواحي وجدة الجنوبية"
  },
  {
    "region_id": "02.",
    "province_id": "02.533.",
    "code": "03",
    "id": "02.533.03.",
    "name": "Cercle : Debdou",
    "name_ar": "دبدو"
  },
  {
    "region_id": "02.",
    "province_id": "02.533.",
    "code": "07",
    "id": "02.533.07.",
    "name": "Cercle : El Aioun",
    "name_ar": "العيون"
  },
  {
    "region_id": "02.",
    "province_id": "02.533.",
    "code": "09",
    "id": "02.533.09.",
    "name": "Cercle : Taourirt",
    "name_ar": "تاوريرت"
  },
  {
    "region_id": "03.",
    "province_id": "03.061.",
    "code": "03",
    "id": "03.061.03.",
    "name": "Cercle : Ain Orma",
    "name_ar": "عين عرمة"
  },
  {
    "region_id": "03.",
    "province_id": "03.061.",
    "code": "05",
    "id": "03.061.05.",
    "name": "Cercle : Meknès Banlieue",
    "name_ar": "الضواحي مكناس"
  },
  {
    "region_id": "03.",
    "province_id": "03.061.",
    "code": "07",
    "id": "03.061.07.",
    "name": "Cercle : Zerhoun",
    "name_ar": "زرهون"
  },
  {
    "region_id": "03.",
    "province_id": "03.131.",
    "code": "03",
    "id": "03.131.03.",
    "name": "Cercle : Boulemane",
    "name_ar": "بولمان"
  },
  {
    "region_id": "03.",
    "province_id": "03.131.",
    "code": "05",
    "id": "03.131.05.",
    "name": "Cercle : Missour",
    "name_ar": "ميسور"
  },
  {
    "region_id": "03.",
    "province_id": "03.131.",
    "code": "07",
    "id": "03.131.07.",
    "name": "Cercle : Outat El Haj",
    "name_ar": "أوطاط الحاج"
  },
  {
    "region_id": "03.",
    "province_id": "03.171.",
    "code": "03",
    "id": "03.171.03.",
    "name": "Cercle : Agourai",
    "name_ar": "أكوراي"
  },
  {
    "region_id": "03.",
    "province_id": "03.171.",
    "code": "05",
    "id": "03.171.05.",
    "name": "Cercle : Ain Taoujdate",
    "name_ar": "عين تاوجطات"
  },
  {
    "region_id": "03.",
    "province_id": "03.171.",
    "code": "07",
    "id": "03.171.07.",
    "name": "Cercle : El Hajeb",
    "name_ar": "الحاجب"
  },
  {
    "region_id": "03.",
    "province_id": "03.231.",
    "code": 81,
    "id": "03.231.81.",
    "name": "Cercle : Fès Banlieue",
    "name_ar": "الضواحي فاس"
  },
  {
    "region_id": "03.",
    "province_id": "03.271.",
    "code": "03",
    "id": "03.271.03.",
    "name": "Cercle : Azrou",
    "name_ar": "أزرو"
  },
  {
    "region_id": "03.",
    "province_id": "03.271.",
    "code": 81,
    "id": "03.271.81.",
    "name": "Cercle : -",
    "name_ar": "دائرة -"
  },
  {
    "region_id": "03.",
    "province_id": "03.451.",
    "code": "03",
    "id": "03.451.03.",
    "name": "Cercle : El Menzel",
    "name_ar": "المنزل"
  },
  {
    "region_id": "03.",
    "province_id": "03.451.",
    "code": "05",
    "id": "03.451.05.",
    "name": "Cercle : Imouzzer  Kandar",
    "name_ar": "إيموزار كندر"
  },
  {
    "region_id": "03.",
    "province_id": "03.451.",
    "code": "07",
    "id": "03.451.07.",
    "name": "Cercle : Sefrou",
    "name_ar": "صفرو"
  },
  {
    "region_id": "03.",
    "province_id": "03.531.",
    "code": "03",
    "id": "03.531.03.",
    "name": "Cercle : Ghafsai",
    "name_ar": "غفساي"
  },
  {
    "region_id": "03.",
    "province_id": "03.531.",
    "code": "05",
    "id": "03.531.05.",
    "name": "Cercle : Karia Ba  Mohamed",
    "name_ar": "قرية با محمد"
  },
  {
    "region_id": "03.",
    "province_id": "03.531.",
    "code": "07",
    "id": "03.531.07.",
    "name": "Cercle : Taounate",
    "name_ar": "تاونات"
  },
  {
    "region_id": "03.",
    "province_id": "03.531.",
    "code": "09",
    "id": "03.531.09.",
    "name": "Cercle : Tissa",
    "name_ar": "تيسا"
  },
  {
    "region_id": "03.",
    "province_id": "03.561.",
    "code": "03",
    "id": "03.561.03.",
    "name": "Cercle : Aknoul",
    "name_ar": "اكنول"
  },
  {
    "region_id": "03.",
    "province_id": "03.561.",
    "code": "07",
    "id": "03.561.07.",
    "name": "Cercle : Oued Amlil",
    "name_ar": "واد أمليل"
  },
  {
    "region_id": "03.",
    "province_id": "03.561.",
    "code": "09",
    "id": "03.561.09.",
    "name": "Cercle : Tahla",
    "name_ar": "طحلة"
  },
  {
    "region_id": "03.",
    "province_id": "03.561.",
    "code": 11,
    "id": "03.561.11.",
    "name": "Cercle : Tainaste",
    "name_ar": "تاينست"
  },
  {
    "region_id": "03.",
    "province_id": "03.561.",
    "code": 13,
    "id": "03.561.13.",
    "name": "Cercle : Taza",
    "name_ar": "تازة"
  },
  {
    "region_id": "03.",
    "province_id": "03.591.",
    "code": "03",
    "id": "03.591.03.",
    "name": "Cercle : Moulay  Yacoub",
    "name_ar": "مولاي يعقوب"
  },
  {
    "region_id": "03.",
    "province_id": "03.591.",
    "code": "05",
    "id": "03.591.05.",
    "name": "Cercle : Oulad Jemaa Lemta",
    "name_ar": "دائرة: أولاد جمعة لمط"
  },
  {
    "region_id": "04.",
    "province_id": "04.281.",
    "code": "03",
    "id": "04.281.03.",
    "name": "Cercle : Kénitra-Banlieue",
    "name_ar": "القنيطرة-الضواحي"
  },
  {
    "region_id": "04.",
    "province_id": "04.281.",
    "code": "05",
    "id": "04.281.05.",
    "name": "Cercle : Ben Mansour",
    "name_ar": "بن منصور"
  },
  {
    "region_id": "04.",
    "province_id": "04.281.",
    "code": "07",
    "id": "04.281.07.",
    "name": "Cercle : Souk Arbaa  El Gharb",
    "name_ar": "سوق أربعاء الغرب"
  },
  {
    "region_id": "04.",
    "province_id": "04.281.",
    "code": "09",
    "id": "04.281.09.",
    "name": "Cercle : Souk Tlet  El Gharb",
    "name_ar": "سوق الثلاتاء الغرب"
  },
  {
    "region_id": "04.",
    "province_id": "04.281.",
    "code": 11,
    "id": "04.281.11.",
    "name": "Cercle : Lalla Mimouna",
    "name_ar": "دائرة: لالة ميمونة"
  },
  {
    "region_id": "04.",
    "province_id": "04.291.",
    "code": "03",
    "id": "04.291.03.",
    "name": "Cercle : Khémisset",
    "name_ar": "الخميسات"
  },
  {
    "region_id": "04.",
    "province_id": "04.291.",
    "code": "05",
    "id": "04.291.05.",
    "name": "Cercle : Oulmes",
    "name_ar": "ولماس"
  },
  {
    "region_id": "04.",
    "province_id": "04.291.",
    "code": "07",
    "id": "04.291.07.",
    "name": "Cercle : Rommani",
    "name_ar": "الرماني"
  },
  {
    "region_id": "04.",
    "province_id": "04.291.",
    "code": "09",
    "id": "04.291.09.",
    "name": "Cercle : Tiflet",
    "name_ar": "تيفلت"
  },
  {
    "region_id": "04.",
    "province_id": "04.441.",
    "code": "03",
    "id": "04.441.03.",
    "name": "Cercle : Salé  Banlieue",
    "name_ar": "الضواحي سلا"
  },
  {
    "region_id": "04.",
    "province_id": "04.481.",
    "code": "03",
    "id": "04.481.03.",
    "name": "Cercle : Tilal Al Gharb",
    "name_ar": "تلال  الغرب"
  },
  {
    "region_id": "04.",
    "province_id": "04.481.",
    "code": "05",
    "id": "04.481.05.",
    "name": "Cercle : Gharb-Bni Malek",
    "name_ar": "الغرب بني مالك"
  },
  {
    "region_id": "04.",
    "province_id": "04.481.",
    "code": "07",
    "id": "04.481.07.",
    "name": "Cercle : Ouargha",
    "name_ar": "أوارغة"
  },
  {
    "region_id": "04.",
    "province_id": "04.481.",
    "code": "09",
    "id": "04.481.09.",
    "name": "Cercle : Chrarda",
    "name_ar": "الشراردة"
  },
  {
    "region_id": "04.",
    "province_id": "04.481.",
    "code": 11,
    "id": "04.481.11.",
    "name": "Cercle : Baht",
    "name_ar": "باهت"
  },
  {
    "region_id": "04.",
    "province_id": "04.491.",
    "code": "03",
    "id": "04.491.03.",
    "name": "Cercle : Kceibya",
    "name_ar": "قصيبية"
  },
  {
    "region_id": "04.",
    "province_id": "04.491.",
    "code": "05",
    "id": "04.491.05.",
    "name": "Cercle : Sidi slimane",
    "name_ar": "سيدي سليمان"
  },
  {
    "region_id": "04.",
    "province_id": "04.501.",
    "code": "03",
    "id": "04.501.03.",
    "name": "Cercle : Ain El Aouda",
    "name_ar": "عين عودة"
  },
  {
    "region_id": "04.",
    "province_id": "04.501.",
    "code": "05",
    "id": "04.501.05.",
    "name": "Cercle : Témara",
    "name_ar": "تمارة"
  },
  {
    "region_id": "05.",
    "province_id": "05.081.",
    "code": "03",
    "id": "05.081.03.",
    "name": "Cercle : Azilal",
    "name_ar": "أزيلال"
  },
  {
    "region_id": "05.",
    "province_id": "05.081.",
    "code": "05",
    "id": "05.081.05.",
    "name": "Cercle : Bzou",
    "name_ar": "بزو"
  },
  {
    "region_id": "05.",
    "province_id": "05.081.",
    "code": "09",
    "id": "05.081.09.",
    "name": "Cercle : Ouaouizeght",
    "name_ar": "واويزغت"
  },
  {
    "region_id": "05.",
    "province_id": "05.081.",
    "code": 11,
    "id": "05.081.11.",
    "name": "Cercle : Afourar",
    "name_ar": "أفورار"
  },
  {
    "region_id": "05.",
    "province_id": "05.081.",
    "code": 13,
    "id": "05.081.13.",
    "name": "Cercle : Fetouqka",
    "name_ar": "فطواكة"
  },
  {
    "region_id": "05.",
    "province_id": "05.081.",
    "code": 15,
    "id": "05.081.15.",
    "name": "Cercle : Oultana",
    "name_ar": "اولتانة"
  },
  {
    "region_id": "05.",
    "province_id": "05.091.",
    "code": "03",
    "id": "05.091.03.",
    "name": "Cercle : Béni Mellal",
    "name_ar": "بني ملال"
  },
  {
    "region_id": "05.",
    "province_id": "05.091.",
    "code": "05",
    "id": "05.091.05.",
    "name": "Cercle : Aghbala",
    "name_ar": "أغبالةِ"
  },
  {
    "region_id": "05.",
    "province_id": "05.091.",
    "code": "07",
    "id": "05.091.07.",
    "name": "Cercle : El Ksiba",
    "name_ar": "القصيبة"
  },
  {
    "region_id": "05.",
    "province_id": "05.091.",
    "code": 11,
    "id": "05.091.11.",
    "name": "Cercle : Kasba Tadla",
    "name_ar": "قصبة تادلة"
  },
  {
    "region_id": "05.",
    "province_id": "05.255.",
    "code": "05",
    "id": "05.255.05.",
    "name": "Cercle : Bni Moussa Charquia",
    "name_ar": "بني موسى الشرقية"
  },
  {
    "region_id": "05.",
    "province_id": "05.255.",
    "code": "09",
    "id": "05.255.09.",
    "name": "Cercle : Fqih  Ben  Salah",
    "name_ar": "الفقيه بن صلاح"
  },
  {
    "region_id": "05.",
    "province_id": "05.255.",
    "code": 11,
    "id": "05.255.11.",
    "name": "Cercle : Bni Moussa Gharbia",
    "name_ar": "بني موسى الغربية"
  },
  {
    "region_id": "05.",
    "province_id": "05.301.",
    "code": "03",
    "id": "05.301.03.",
    "name": "Cercle : El Kbab",
    "name_ar": "الكباب"
  },
  {
    "region_id": "05.",
    "province_id": "05.301.",
    "code": "05",
    "id": "05.301.05.",
    "name": "Cercle : Khénifra",
    "name_ar": "خنيفرة"
  },
  {
    "region_id": "05.",
    "province_id": "05.301.",
    "code": "07",
    "id": "05.301.07.",
    "name": "Cercle : Aguelmous",
    "name_ar": "أكلموس"
  },
  {
    "region_id": "05.",
    "province_id": "05.311.",
    "code": "03",
    "id": "05.311.03.",
    "name": "Cercle : Bejaad",
    "name_ar": "بجعد"
  },
  {
    "region_id": "05.",
    "province_id": "05.311.",
    "code": "05",
    "id": "05.311.05.",
    "name": "Cercle : Khouribga",
    "name_ar": "خريبكة"
  },
  {
    "region_id": "05.",
    "province_id": "05.311.",
    "code": "07",
    "id": "05.311.07.",
    "name": "Cercle : Oued-Zem",
    "name_ar": "وادي زم"
  },
  {
    "region_id": "06.",
    "province_id": "06.111.",
    "code": "03",
    "id": "06.111.03.",
    "name": "Cercle : Benslimane",
    "name_ar": "بن سليمان"
  },
  {
    "region_id": "06.",
    "province_id": "06.111.",
    "code": "05",
    "id": "06.111.05.",
    "name": "Cercle : Bouznika",
    "name_ar": "بوزنيقة"
  },
  {
    "region_id": "06.",
    "province_id": "06.117.",
    "code": "05",
    "id": "06.117.05.",
    "name": "Cercle : Berrechid",
    "name_ar": "برشيد"
  },
  {
    "region_id": "06.",
    "province_id": "06.117.",
    "code": "08",
    "id": "06.117.08.",
    "name": "Cercle : El Gara",
    "name_ar": "الجارا"
  },
  {
    "region_id": "06.",
    "province_id": "06.141.",
    "code": "01",
    "id": "06.141.01.0.",
    "name": "Préfecture d’Arrondissements Casablanca Anfa",
    "name_ar": "الدار البيضاء"
  },
  {
    "region_id": "06.",
    "province_id": "06.141.",
    "code": "01",
    "id": "06.141.01.1.",
    "name": "Préfecture d’Arrondissements Al Fida-Mers Sultan",
    "name_ar": "الفداء مرس السلطان،"
  },
  {
    "region_id": "06.",
    "province_id": "06.141.",
    "code": "01",
    "id": "06.141.01.2.",
    "name": "Préfecture d’Arrondissements Aïn Sebaâ-Hay Mohammadi",
    "name_ar": "عين السبع الحي المحمدي"
  },
  {
    "region_id": "06.",
    "province_id": "06.141.",
    "code": "01",
    "id": "06.141.01.3.",
    "name": "Préfecture d’Arrondissement  Hay Hassani",
    "name_ar": "الحي الحسني"
  },
  {
    "region_id": "06.",
    "province_id": "06.141.",
    "code": "01",
    "id": "06.141.01.4.",
    "name": "Préfecture d’Arrondissement  Aïn Chock",
    "name_ar": "الشق عين"
  },
  {
    "region_id": "06.",
    "province_id": "06.141.",
    "code": "01",
    "id": "06.141.01.5.",
    "name": "Préfecture d’Arrondissements Sidi Bernoussi",
    "name_ar": "سيدي البرنوصي"
  },
  {
    "region_id": "06.",
    "province_id": "06.141.",
    "code": "01",
    "id": "06.141.01.6.",
    "name": "Préfecture d’Arrondissements Ben M’sick",
    "name_ar": "بن مسيك"
  },
  {
    "region_id": "06.",
    "province_id": "06.141.",
    "code": "01",
    "id": "06.141.01.7.",
    "name": "Préfecture d’Arrondissements Moulay Rachid",
    "name_ar": "مولاي رشيد"
  },
  {
    "region_id": "06.",
    "province_id": "06.181.",
    "code": "03",
    "id": "06.181.03.",
    "name": "Cercle : Azemmour",
    "name_ar": "أزمور"
  },
  {
    "region_id": "06.",
    "province_id": "06.181.",
    "code": "05",
    "id": "06.181.05.",
    "name": "Cercle : El Jadida",
    "name_ar": "بالجديدة"
  },
  {
    "region_id": "06.",
    "province_id": "06.181.",
    "code": "07",
    "id": "06.181.07.",
    "name": "Cercle : Haouzia",
    "name_ar": "الحوزية"
  },
  {
    "region_id": "06.",
    "province_id": "06.181.",
    "code": "09",
    "id": "06.181.09.",
    "name": "Cercle : Sidi Smail",
    "name_ar": "سيدي إسماعيل"
  },
  {
    "region_id": "06.",
    "province_id": "06.355.",
    "code": "03",
    "id": "06.355.03.",
    "name": "Cercle : Tit Mellil",
    "name_ar": "تيط مليل"
  },
  {
    "region_id": "06.",
    "province_id": "06.371.",
    "code": "03",
    "id": "06.371.03.",
    "name": "Cercle : Znata",
    "name_ar": "زناتة"
  },
  {
    "region_id": "06.",
    "province_id": "06.385.",
    "code": "03",
    "id": "06.385.03.",
    "name": "Cercle : Bouskoura",
    "name_ar": "بوسكورة"
  },
  {
    "region_id": "06.",
    "province_id": "06.461.",
    "code": "03",
    "id": "06.461.03.",
    "name": "Cercle : Ben Ahmed",
    "name_ar": "بن أحمد"
  },
  {
    "region_id": "06.",
    "province_id": "06.461.",
    "code": "07",
    "id": "06.461.07.",
    "name": "Cercle : El Borouj",
    "name_ar": "البروج"
  },
  {
    "region_id": "06.",
    "province_id": "06.461.",
    "code": "09",
    "id": "06.461.09.",
    "name": "Cercle : Settat",
    "name_ar": "سطات"
  },
  {
    "region_id": "06.",
    "province_id": "06.467.",
    "code": "07",
    "id": "06.467.07.",
    "name": "Cercle : Sidi Bennour",
    "name_ar": "سيدي بنور"
  },
  {
    "region_id": "06.",
    "province_id": "06.467.",
    "code": 11,
    "id": "06.467.11.",
    "name": "Cercle : Zemamra",
    "name_ar": "الزمامرة"
  },
  {
    "region_id": "07.",
    "province_id": "07.041.",
    "code": "03",
    "id": "07.041.03.",
    "name": "Cercle : Ait Ourir",
    "name_ar": "أيت أورير"
  },
  {
    "region_id": "07.",
    "province_id": "07.041.",
    "code": "05",
    "id": "07.041.05.",
    "name": "Cercle : Amizmiz",
    "name_ar": "دائرة أمزميز"
  },
  {
    "region_id": "07.",
    "province_id": "07.041.",
    "code": "07",
    "id": "07.041.07.",
    "name": "Cercle : Asni",
    "name_ar": "أسني"
  },
  {
    "region_id": "07.",
    "province_id": "07.041.",
    "code": "09",
    "id": "07.041.09.",
    "name": "Cercle : Tahannaout",
    "name_ar": "تحناوت"
  },
  {
    "region_id": "07.",
    "province_id": "07.041.",
    "code": 11,
    "id": "07.041.11.",
    "name": "Cercle : Touama",
    "name_ar": "التوامة"
  },
  {
    "region_id": "07.",
    "province_id": "07.161.",
    "code": "03",
    "id": "07.161.03.",
    "name": "Cercle : Chichaoua",
    "name_ar": "شيشاوا"
  },
  {
    "region_id": "07.",
    "province_id": "07.161.",
    "code": "05",
    "id": "07.161.05.",
    "name": "Cercle : Imintanoute",
    "name_ar": "إيمنتانوت"
  },
  {
    "region_id": "07.",
    "province_id": "07.161.",
    "code": "07",
    "id": "07.161.07.",
    "name": "Cercle : Majjat",
    "name_ar": "مجاط"
  },
  {
    "region_id": "07.",
    "province_id": "07.161.",
    "code": "09",
    "id": "07.161.09.",
    "name": "Cercle : Mtouga",
    "name_ar": "امتوكة"
  },
  {
    "region_id": "07.",
    "province_id": "07.191.",
    "code": "03",
    "id": "07.191.03.",
    "name": "Cercle : El Kelaa Des Sraghna",
    "name_ar": "قلعة السراغنة"
  },
  {
    "region_id": "07.",
    "province_id": "07.191.",
    "code": "05",
    "id": "07.191.05.",
    "name": "Cercle : Laattaouia",
    "name_ar": "العطاوية"
  },
  {
    "region_id": "07.",
    "province_id": "07.191.",
    "code": "07",
    "id": "07.191.07.",
    "name": "Cercle : Tamallalt",
    "name_ar": "تملالت"
  },
  {
    "region_id": "07.",
    "province_id": "07.211.",
    "code": "03",
    "id": "07.211.03.",
    "name": "Cercle : Essaouira",
    "name_ar": "الصويرة"
  },
  {
    "region_id": "07.",
    "province_id": "07.211.",
    "code": "05",
    "id": "07.211.05.",
    "name": "Cercle : Tamanar",
    "name_ar": "تمنار"
  },
  {
    "region_id": "07.",
    "province_id": "07.351.",
    "code": "02",
    "id": "07.351.02.",
    "name": "Cercle : Alouidane",
    "name_ar": "الويدان"
  },
  {
    "region_id": "07.",
    "province_id": "07.351.",
    "code": "03",
    "id": "07.351.03.",
    "name": "Cercle : Bour",
    "name_ar": "سبع البور"
  },
  {
    "region_id": "07.",
    "province_id": "07.351.",
    "code": "05",
    "id": "07.351.05.",
    "name": "Cercle : Loudaya",
    "name_ar": "الوداية"
  },
  {
    "region_id": "07.",
    "province_id": "07.351.",
    "code": "07",
    "id": "07.351.07.",
    "name": "Cercle : Saada",
    "name_ar": "صعدة"
  },
  {
    "region_id": "07.",
    "province_id": "07.427.",
    "code": "07",
    "id": "07.427.07.",
    "name": "Cercle : Rehamna",
    "name_ar": "الرحامنة"
  },
  {
    "region_id": "07.",
    "province_id": "07.427.",
    "code": "09",
    "id": "07.427.09.",
    "name": "Cercle : Sidi Bou Othmane",
    "name_ar": "سيدي بوعثمان"
  },
  {
    "region_id": "07.",
    "province_id": "07.431.",
    "code": "03",
    "id": "07.431.03.",
    "name": "Cercle : Abda",
    "name_ar": "عبدة"
  },
  {
    "region_id": "07.",
    "province_id": "07.431.",
    "code": "07",
    "id": "07.431.07.",
    "name": "Cercle : Gzoula",
    "name_ar": "كزولة"
  },
  {
    "region_id": "07.",
    "province_id": "07.431.",
    "code": "09",
    "id": "07.431.09.",
    "name": "Cercle : Hrara",
    "name_ar": "حرارة"
  },
  {
    "region_id": "07.",
    "province_id": "07.585.",
    "code": "05",
    "id": "07.585.05.",
    "name": "Cercle : Ahmar",
    "name_ar": "الأحمر"
  },
  {
    "region_id": "07.",
    "province_id": "07.585.",
    "code": "07",
    "id": "07.585.07.",
    "name": "Cercle : Al Gantour",
    "name_ar": "الكنتور"
  },
  {
    "region_id": "08.",
    "province_id": "08.201.",
    "code": "03",
    "id": "08.201.03.",
    "name": "Cercle : Arfoud",
    "name_ar": "أرفود"
  },
  {
    "region_id": "08.",
    "province_id": "08.201.",
    "code": "07",
    "id": "08.201.07.",
    "name": "Cercle : Errachidia",
    "name_ar": "الرشيدية"
  },
  {
    "region_id": "08.",
    "province_id": "08.201.",
    "code": 11,
    "id": "08.201.11.",
    "name": "Cercle : Er-Rissani",
    "name_ar": "الريصاني"
  },
  {
    "region_id": "08.",
    "province_id": "08.201.",
    "code": 13,
    "id": "08.201.13.",
    "name": "Cercle : Goulmima",
    "name_ar": "كلميمة"
  },
  {
    "region_id": "08.",
    "province_id": "08.363.",
    "code": "05",
    "id": "08.363.05.",
    "name": "Cercle : Boumia",
    "name_ar": "بومية"
  },
  {
    "region_id": "08.",
    "province_id": "08.363.",
    "code": "07",
    "id": "08.363.07.",
    "name": "Cercle : Midelt",
    "name_ar": "ميدلت"
  },
  {
    "region_id": "08.",
    "province_id": "08.363.",
    "code": "09",
    "id": "08.363.09.",
    "name": "Cercle : Er-Rich",
    "name_ar": "الريش"
  },
  {
    "region_id": "08.",
    "province_id": "08.363.",
    "code": 15,
    "id": "08.363.15.",
    "name": "Cercle : Imilchil",
    "name_ar": "إملشيل"
  },
  {
    "region_id": "08.",
    "province_id": "08.401.",
    "code": "03",
    "id": "08.401.03.",
    "name": "Cercle : Amerzgane",
    "name_ar": "أمرزكان"
  },
  {
    "region_id": "08.",
    "province_id": "08.401.",
    "code": "07",
    "id": "08.401.07.",
    "name": "Cercle : Ouarzazate",
    "name_ar": "ورزازات"
  },
  {
    "region_id": "08.",
    "province_id": "08.577.",
    "code": "02",
    "id": "08.577.02.",
    "name": "Cercle : Alnif",
    "name_ar": "النيف"
  },
  {
    "region_id": "08.",
    "province_id": "08.577.",
    "code": "03",
    "id": "08.577.03.",
    "name": "Cercle : Assoul",
    "name_ar": "عسول"
  },
  {
    "region_id": "08.",
    "province_id": "08.577.",
    "code": "05",
    "id": "08.577.05.",
    "name": "Cercle : Boumalne   Dades",
    "name_ar": "بومالن دادس"
  },
  {
    "region_id": "08.",
    "province_id": "08.577.",
    "code": "07",
    "id": "08.577.07.",
    "name": "Cercle : Tinghir",
    "name_ar": "تنغير"
  },
  {
    "region_id": "08.",
    "province_id": "08.587.",
    "code": "03",
    "id": "08.587.03.",
    "name": "Cercle : Agdz",
    "name_ar": "أكدز"
  },
  {
    "region_id": "08.",
    "province_id": "08.587.",
    "code": "07",
    "id": "08.587.07.",
    "name": "Cercle : Tinzouline",
    "name_ar": "تينزولين"
  },
  {
    "region_id": "08.",
    "province_id": "08.587.",
    "code": "09",
    "id": "08.587.09.",
    "name": "Cercle : Zagora",
    "name_ar": "زاكورة"
  },
  {
    "region_id": "09.",
    "province_id": "09.001.",
    "code": "05",
    "id": "09.001.05.",
    "name": "Cercle : Agadir  Banlieue",
    "name_ar": "أكادير"
  },
  {
    "region_id": "09.",
    "province_id": "09.001.",
    "code": "07",
    "id": "09.001.07.",
    "name": "Cercle : Agadir  Atlantique",
    "name_ar": "مدينة أغادير أتلانتيك"
  },
  {
    "region_id": "09.",
    "province_id": "09.163.",
    "code": "03",
    "id": "09.163.03.",
    "name": "Cercle : Ait Baha",
    "name_ar": "آيت باها"
  },
  {
    "region_id": "09.",
    "province_id": "09.163.",
    "code": "05",
    "id": "09.163.05.",
    "name": "Cercle : Belfaa- Massa",
    "name_ar": "بلفاع- ماسا"
  },
  {
    "region_id": "09.",
    "province_id": "09.163.",
    "code": "07",
    "id": "09.163.07.",
    "name": "Cercle : Biougra",
    "name_ar": "بيوكرة"
  },
  {
    "region_id": "09.",
    "province_id": "09.273.",
    "code": "05",
    "id": "09.273.05.",
    "name": "Cercle : Ait Melloul",
    "name_ar": "أيت ملول"
  },
  {
    "region_id": "09.",
    "province_id": "09.541.",
    "code": "03",
    "id": "09.541.03.",
    "name": "Cercle : Irherm",
    "name_ar": "اغرم"
  },
  {
    "region_id": "09.",
    "province_id": "09.541.",
    "code": "04",
    "id": "09.541.04.",
    "name": "Cercle : Oulad   Berhil",
    "name_ar": "أولاد برحيل"
  },
  {
    "region_id": "09.",
    "province_id": "09.541.",
    "code": "05",
    "id": "09.541.05.",
    "name": "Cercle : Oulad Teima",
    "name_ar": "أولاد تايمة"
  },
  {
    "region_id": "09.",
    "province_id": "09.541.",
    "code": "07",
    "id": "09.541.07.",
    "name": "Cercle : Taliouine",
    "name_ar": "تالوين"
  },
  {
    "region_id": "09.",
    "province_id": "09.541.",
    "code": "09",
    "id": "09.541.09.",
    "name": "Cercle : Taroudannt",
    "name_ar": "تارودانت"
  },
  {
    "region_id": "09.",
    "province_id": "09.551.",
    "code": "03",
    "id": "09.551.03.",
    "name": "Cercle : Akka",
    "name_ar": "عكا"
  },
  {
    "region_id": "09.",
    "province_id": "09.551.",
    "code": "05",
    "id": "09.551.05.",
    "name": "Cercle : Foum Zguid",
    "name_ar": "فم زكيد"
  },
  {
    "region_id": "09.",
    "province_id": "09.551.",
    "code": "07",
    "id": "09.551.07.",
    "name": "Cercle : Tata",
    "name_ar": "طاطا"
  },
  {
    "region_id": "09.",
    "province_id": "09.581.",
    "code": "03",
    "id": "09.581.03.",
    "name": "Cercle : Anezi",
    "name_ar": "العنزي"
  },
  {
    "region_id": "09.",
    "province_id": "09.581.",
    "code": "09",
    "id": "09.581.09.",
    "name": "Cercle : Tafraout",
    "name_ar": "تافراوت"
  },
  {
    "region_id": "09.",
    "province_id": "09.581.",
    "code": 11,
    "id": "09.581.11.",
    "name": "Cercle : Tiznit",
    "name_ar": "تزنيت"
  },
  {
    "region_id": "10.",
    "province_id": "10.071.",
    "code": "03",
    "id": "10.071.03.",
    "name": "Cercle : Assa",
    "name_ar": "أسا"
  },
  {
    "region_id": "10.",
    "province_id": "10.071.",
    "code": "05",
    "id": "10.071.05.",
    "name": "Cercle : Zag",
    "name_ar": "الزاك"
  },
  {
    "region_id": "10.",
    "province_id": "10.261.",
    "code": "03",
    "id": "10.261.03.",
    "name": "Cercle : Bouizakarne",
    "name_ar": "بويزكارن"
  },
  {
    "region_id": "10.",
    "province_id": "10.261.",
    "code": "05",
    "id": "10.261.05.",
    "name": "Cercle : Guelmim",
    "name_ar": "كلميم"
  },
  {
    "region_id": "10.",
    "province_id": "10.261.",
    "code": "07",
    "id": "10.261.07.",
    "name": "Cercle : Laqsabi",
    "name_ar": "لقصابي"
  },
  {
    "region_id": "10.",
    "province_id": "10.473.",
    "code": "05",
    "id": "10.473.05.",
    "name": "Cercle : Ifni",
    "name_ar": "إفني"
  },
  {
    "region_id": "10.",
    "province_id": "10.473.",
    "code": "07",
    "id": "10.473.07.",
    "name": "Cercle : Lakhsas",
    "name_ar": "لخصاص"
  },
  {
    "region_id": "10.",
    "province_id": "10.521.",
    "code": "03",
    "id": "10.521.03.",
    "name": "Cercle : Msied",
    "name_ar": "لمسيد"
  },
  {
    "region_id": "10.",
    "province_id": "10.521.",
    "code": "05",
    "id": "10.521.05.",
    "name": "Cercle : Tan Tan",
    "name_ar": "طانطان"
  },
  {
    "region_id": "11.",
    "province_id": "11.121.",
    "code": "03",
    "id": "11.121.03.",
    "name": "Cercle : Jraifia",
    "name_ar": "الجريفية"
  },
  {
    "region_id": "11.",
    "province_id": "11.221.",
    "code": "03",
    "id": "11.221.03.",
    "name": "Cercle : Es-Semara",
    "name_ar": "السمارة"
  },
  {
    "region_id": "11.",
    "province_id": "11.321.",
    "code": "03",
    "id": "11.321.03.",
    "name": "Cercle : Laayoune",
    "name_ar": "العيون"
  },
  {
    "region_id": "11.",
    "province_id": "11.537.",
    "code": "03",
    "id": "11.537.03.",
    "name": "Cercle : Daoura -el Hagounia",
    "name_ar": "الدورة - الحڭونية"
  },
  {
    "region_id": "11.",
    "province_id": "11.537.",
    "code": "05",
    "id": "11.537.05.",
    "name": "Cercle : Tarfaya",
    "name_ar": "طرفاية"
  },
  {
    "region_id": "12.",
    "province_id": "12.066.",
    "code": "03",
    "id": "12.066.03.",
    "name": "Cercle : Aousserd",
    "name_ar": "أوسرد"
  },
  {
    "region_id": "12.",
    "province_id": "12.066.",
    "code": "05",
    "id": "12.066.05.",
    "name": "Cercle : Bir Gandouz",
    "name_ar": "بئر كندوز"
  },
  {
    "region_id": "12.",
    "province_id": "12.391.",
    "code": "05",
    "id": "12.391.05.",
    "name": "Cercle : Bir Anzarane",
    "name_ar": "بئر أنزران"
  },
  {
    "region_id": "12.",
    "province_id": "12.391.",
    "code": "09",
    "id": "12.391.09.",
    "name": "Cercle : El Argoub",
    "name_ar": "العرڭوب"
  }
]
