[
  {
    "region_id": "01.",
    "code": "051",
    "id": "01.051.",
    "name": "Province: Al Hoceima",
    "name_ar": "المحافظة: الحسيمة"
  },
  {
    "region_id": "01.",
    "code": 151,
    "id": "01.151.",
    "name": "Province: Chefchaouen",
    "name_ar": "شفشاون"
  },
  {
    "region_id": "01.",
    "code": 227,
    "id": "01.227.",
    "name": "Province: Fahs-Anjra",
    "name_ar": "الفحص أنجرة"
  },
  {
    "region_id": "01.",
    "code": 331,
    "id": "01.331.",
    "name": "Province: Larache",
    "name_ar": "العرائش"
  },
  {
    "region_id": "01.",
    "code": 405,
    "id": "01.405.",
    "name": "Province: Ouezzane",
    "name_ar": "وزان"
  },
  {
    "region_id": "01.",
    "code": 511,
    "id": "01.511.",
    "name": "Préfecture: Tanger-Assilah",
    "name_ar": "طنجة-أصيلة"
  },
  {
    "region_id": "01.",
    "code": 571,
    "id": "01.571.",
    "name": "Province: Tétouan",
    "name_ar": "تطوان"
  },
  {
    "region_id": "01.",
    "code": 573,
    "id": "01.573.",
    "name": "Préfecture: M'Diq-Fnideq",
    "name_ar": "المضيق الفنيدق"
  },
  {
    "region_id": "02.",
    "code": 113,
    "id": "02.113.",
    "name": "Province: Berkane",
    "name_ar": "بركان"
  },
  {
    "region_id": "02.",
    "code": 167,
    "id": "02.167.",
    "name": "Province: Driouch",
    "name_ar": "الدريوش"
  },
  {
    "region_id": "02.",
    "code": 251,
    "id": "02.251.",
    "name": "Province: Figuig",
    "name_ar": "فكيك"
  },
  {
    "region_id": "02.",
    "code": 265,
    "id": "02.265.",
    "name": "Province: Guercif",
    "name_ar": "غرسيف"
  },
  {
    "region_id": "02.",
    "code": 275,
    "id": "02.275.",
    "name": "Province: Jerada",
    "name_ar": "جرادة"
  },
  {
    "region_id": "02.",
    "code": 381,
    "id": "02.381.",
    "name": "Province: Nador",
    "name_ar": "الناظور"
  },
  {
    "region_id": "02.",
    "code": 411,
    "id": "02.411.",
    "name": "Préfecture: Oujda-Angad",
    "name_ar": "جدة-أنجاد"
  },
  {
    "region_id": "02.",
    "code": 533,
    "id": "02.533.",
    "name": "Province: Taourirt",
    "name_ar": "تاوريرت"
  },
  {
    "region_id": "03.",
    "code": "061",
    "id": "03.061.",
    "name": "Préfecture: Meknès",
    "name_ar": "مكناس"
  },
  {
    "region_id": "03.",
    "code": 131,
    "id": "03.131.",
    "name": "Province: Boulemane",
    "name_ar": "بولمان"
  },
  {
    "region_id": "03.",
    "code": 171,
    "id": "03.171.",
    "name": "Province: El  Hajeb",
    "name_ar": "الحاجب"
  },
  {
    "region_id": "03.",
    "code": 231,
    "id": "03.231.",
    "name": "Préfecture: Fès",
    "name_ar": "فاس"
  },
  {
    "region_id": "03.",
    "code": 271,
    "id": "03.271.",
    "name": "Province: Ifrane",
    "name_ar": "إفران"
  },
  {
    "region_id": "03.",
    "code": 451,
    "id": "03.451.",
    "name": "Province: Sefrou",
    "name_ar": "صفرو"
  },
  {
    "region_id": "03.",
    "code": 531,
    "id": "03.531.",
    "name": "Province: Taounate",
    "name_ar": "تاونات"
  },
  {
    "region_id": "03.",
    "code": 561,
    "id": "03.561.",
    "name": "Province: Taza",
    "name_ar": "تازة"
  },
  {
    "region_id": "03.",
    "code": 591,
    "id": "03.591.",
    "name": "Province: Moulay Yacoub",
    "name_ar": "مولاي يعقوب"
  },
  {
    "region_id": "04.",
    "code": 281,
    "id": "04.281.",
    "name": "Province: Kénitra",
    "name_ar": "القنيطرة"
  },
  {
    "region_id": "04.",
    "code": 291,
    "id": "04.291.",
    "name": "Province: Khémisset",
    "name_ar": "الخميسات"
  },
  {
    "region_id": "04.",
    "code": 421,
    "id": "04.421.",
    "name": "Préfecture: Rabat",
    "name_ar": "الرباط"
  },
  {
    "region_id": "04.",
    "code": 441,
    "id": "04.441.",
    "name": "Préfecture: Salé",
    "name_ar": "سلا"
  },
  {
    "region_id": "04.",
    "code": 481,
    "id": "04.481.",
    "name": "Province: Sidi Kacem",
    "name_ar": "سيدي قاسم"
  },
  {
    "region_id": "04.",
    "code": 491,
    "id": "04.491.",
    "name": "Province: Sidi Slimane",
    "name_ar": "سيدي سليمان"
  },
  {
    "region_id": "04.",
    "code": 501,
    "id": "04.501.",
    "name": "Préfecture: Skhirate- Témara",
    "name_ar": "الصخيرات - تمارة"
  },
  {
    "region_id": "05.",
    "code": "081",
    "id": "05.081.",
    "name": "Province: Azilal",
    "name_ar": "أزيلال"
  },
  {
    "region_id": "05.",
    "code": "091",
    "id": "05.091.",
    "name": "Province: Béni Mellal",
    "name_ar": "بني ملال"
  },
  {
    "region_id": "05.",
    "code": 255,
    "id": "05.255.",
    "name": "Province: Fquih Ben Salah",
    "name_ar": "الفقيه بنصالح"
  },
  {
    "region_id": "05.",
    "code": 301,
    "id": "05.301.",
    "name": "Province: Khénifra",
    "name_ar": "خنيفرة"
  },
  {
    "region_id": "05.",
    "code": 311,
    "id": "05.311.",
    "name": "Province: Khouribga",
    "name_ar": "خريبكة"
  },
  {
    "region_id": "06.",
    "code": 111,
    "id": "06.111.",
    "name": "Province: Benslimane",
    "name_ar": "بنسليمان"
  },
  {
    "region_id": "06.",
    "code": 117,
    "id": "06.117.",
    "name": "Province: Berrechid",
    "name_ar": "برشيد"
  },
  {
    "region_id": "06.",
    "code": 141,
    "id": "06.141.",
    "name": "Préfecture: Casablanca",
    "name_ar": "الدار البيضاء"
  },
  {
    "region_id": "06.",
    "code": 181,
    "id": "06.181.",
    "name": "Province: El Jadida",
    "name_ar": "الجديدة"
  },
  {
    "region_id": "06.",
    "code": 355,
    "id": "06.355.",
    "name": "Province: Médiouna",
    "name_ar": "مديونة"
  },
  {
    "region_id": "06.",
    "code": 371,
    "id": "06.371.",
    "name": "Préfecture: Mohammadia",
    "name_ar": "المحمدية"
  },
  {
    "region_id": "06.",
    "code": 385,
    "id": "06.385.",
    "name": "Province: Nouaceur",
    "name_ar": "النواصر"
  },
  {
    "region_id": "06.",
    "code": 461,
    "id": "06.461.",
    "name": "Province: Settat",
    "name_ar": "سطات"
  },
  {
    "region_id": "06.",
    "code": 467,
    "id": "06.467.",
    "name": "Province: Sidi Bennour",
    "name_ar": "سيدي بنور"
  },
  {
    "region_id": "07.",
    "code": "041",
    "id": "07.041.",
    "name": "Province: Al  Haouz",
    "name_ar": "الحوز"
  },
  {
    "region_id": "07.",
    "code": 161,
    "id": "07.161.",
    "name": "Province: Chichaoua",
    "name_ar": "شيشاوا"
  },
  {
    "region_id": "07.",
    "code": 191,
    "id": "07.191.",
    "name": "Province: El Kelâa des  Sraghna",
    "name_ar": "قلعة السراغنة"
  },
  {
    "region_id": "07.",
    "code": 211,
    "id": "07.211.",
    "name": "Province: Essaouira",
    "name_ar": "الصويرة"
  },
  {
    "region_id": "07.",
    "code": 351,
    "id": "07.351.",
    "name": "Préfecture: Marrakech",
    "name_ar": "مراكش"
  },
  {
    "region_id": "07.",
    "code": 427,
    "id": "07.427.",
    "name": "Province: Rehamna",
    "name_ar": "الرحامنة"
  },
  {
    "region_id": "07.",
    "code": 431,
    "id": "07.431.",
    "name": "Province: Safi",
    "name_ar": "الصافي"
  },
  {
    "region_id": "07.",
    "code": 585,
    "id": "07.585.",
    "name": "Province: Youssoufia",
    "name_ar": "اليوسفية"
  },
  {
    "region_id": "08.",
    "code": 201,
    "id": "08.201.",
    "name": "Province: Errachidia",
    "name_ar": "الرشيدية"
  },
  {
    "region_id": "08.",
    "code": 363,
    "id": "08.363.",
    "name": "Province: Midelt",
    "name_ar": "ميدلت"
  },
  {
    "region_id": "08.",
    "code": 401,
    "id": "08.401.",
    "name": "Province: Ouarzazate",
    "name_ar": "ورزازات"
  },
  {
    "region_id": "08.",
    "code": 577,
    "id": "08.577.",
    "name": "Province: Tinghir",
    "name_ar": "تنغير"
  },
  {
    "region_id": "08.",
    "code": 587,
    "id": "08.587.",
    "name": "Province: Zagora",
    "name_ar": "زاكورة"
  },
  {
    "region_id": "09.",
    "code": "001",
    "id": "09.001.",
    "name": "Préfecture: Agadir-Ida -Ou-Tanane",
    "name_ar": "أكادير - أدا وتنان"
  },
  {
    "region_id": "09.",
    "code": 163,
    "id": "09.163.",
    "name": "Province: Chtouka- Ait Baha",
    "name_ar": "شتوكة آيت باها"
  },
  {
    "region_id": "09.",
    "code": 273,
    "id": "09.273.",
    "name": "Préfecture: Inezgane- Ait Melloul",
    "name_ar": "محافظة: أيت ملول -إنزكان"
  },
  {
    "region_id": "09.",
    "code": 541,
    "id": "09.541.",
    "name": "Province: Taroudannt",
    "name_ar": "تارودانت"
  },
  {
    "region_id": "09.",
    "code": 551,
    "id": "09.551.",
    "name": "Province: Tata",
    "name_ar": "طاطا"
  },
  {
    "region_id": "09.",
    "code": 581,
    "id": "09.581.",
    "name": "Province: Tiznit",
    "name_ar": "تزنيت"
  },
  {
    "region_id": "10.",
    "code": "071",
    "id": "10.071.",
    "name": "Province: Assa-Zag",
    "name_ar": "أسا الزاك"
  },
  {
    "region_id": "10.",
    "code": 261,
    "id": "10.261.",
    "name": "Province: Guelmim",
    "name_ar": "كلميم"
  },
  {
    "region_id": "10.",
    "code": 473,
    "id": "10.473.",
    "name": "Province: Sidi Ifni",
    "name_ar": "سيدي إفني"
  },
  {
    "region_id": "10.",
    "code": 521,
    "id": "10.521.",
    "name": "Province: Tan-Tan",
    "name_ar": "طانطان"
  },
  {
    "region_id": "11.",
    "code": 121,
    "id": "11.121.",
    "name": "Province: Boujdour",
    "name_ar": "بوجدور"
  },
  {
    "region_id": "11.",
    "code": 221,
    "id": "11.221.",
    "name": "Province: Es-Semara",
    "name_ar": "السمارة"
  },
  {
    "region_id": "11.",
    "code": 321,
    "id": "11.321.",
    "name": "Province: Laâyoune",
    "name_ar": "العيون"
  },
  {
    "region_id": "11.",
    "code": 537,
    "id": "11.537.",
    "name": "Province: Tarfaya",
    "name_ar": "طرفاية"
  },
  {
    "region_id": "12.",
    "code": "066",
    "id": "12.066.",
    "name": "Province: Aousserd",
    "name_ar": "أوسرد"
  },
  {
    "region_id": "12.",
    "code": 391,
    "id": "12.391.",
    "name": "Province: Oued Ed-Dahab",
    "name_ar": "وادي الذهب"
  }
]
